{
  "hk": {
    "name": "香港",
    "hotlines": [
      {
        "title": "香港撒瑪利亞會",
        "type": "hotline",
        "phone": "2896 0000",
        "link": "tel:+852-2896-0000",
        "opening_hours": "247",
        "is247": true,
        "description": null
      },
      {
        "title": "香港撒瑪利亞防止自殺會 情緒支援熱線",
        "type": "hotline",
        "phone": "2389 2222",
        "link": "tel:+852-2389-2222",
        "opening_hours": "247",
        "is247": true,
        "description": null
      },
      {
        "title": "「情緒通」精神健康支援熱線",
        "type": "hotline",
        "phone": "18111",
        "link": "tel:+852-18111",
        "opening_hours": "247",
        "is247": true,
        "description": null
      },
      {
        "title": "Open噏 網上聊天室",
        "type": "chatroom",
        "phone": null,
        "link": "https://www.openup.hk/",
        "opening_hours": "247",
        "is247": true,
        "description": null
      }
    ]
  },
  "tw": {
    "name": "台灣",
    "hotlines": [
      {
        "title": "衛生福利部 安心專線",
        "type": "hotline",
        "phone": "1925",
        "link": "tel:+886-1925",
        "opening_hours": "247",
        "is247": true,
        "description": null
      },
      {
        "title": "生命線專線",
        "type": "hotline",
        "phone": "1995",
        "link": "tel:+886-1995",
        "opening_hours": "247",
        "is247": true,
        "description": null
      },
      {
        "title": "「張老師」網路輔導",
        "type": "chatroom",
        "phone": null,
        "link": "https://www.1980.org.tw/service_item_show.php",
        "opening_hours": "星期一至星期六 晚上18:30至21:30",
        "is247": false,
        "description": null
      }
    ]
  },
  "mo": {
    "name": "澳門",
    "hotlines": [
      {
        "title": "社工局",
        "type": "hotline",
        "phone": "2826 1126",
        "link": "tel:+853-2826-1126",
        "opening_hours": "247",
        "is247": true,
        "description": null
      },
      {
        "title": "澳門明愛生命熱線",
        "type": "hotline",
        "phone": "2852 5222",
        "link": "tel:+853-2852-5222",
        "opening_hours": "247",
        "is247": true,
        "description": null
      }
    ]
  },
  "sg": {
    "name": "新加坡",
    "hotlines": [
      {
        "title": "Samaritans of Singapore",
        "type": "hotline",
        "phone": "1767",
        "link": "tel:+65-1767",
        "opening_hours": "247",
        "is247": true,
        "description": null
      },
      {
        "title": "Samaritans of Singapore CareText",
        "type": "chatroom",
        "phone": null,
        "link": "https://wa.me/6591511767",
        "opening_hours": "247",
        "is247": true,
        "description": "使用WhatsApp收發訊息"
      }
    ]
  },
  "my": {
    "name": "馬來西亞",
    "hotlines": [
      {
        "title": "Befrienders Kuala Lumpur",
        "type": "hotline",
        "phone": "03-76272929",
        "link": "tel:+60-3-7627-2929",
        "opening_hours": "247",
        "is247": true,
        "description": null
      },
      {
        "title": "NCEMH Talian HEAL",
        "type": "hotline",
        "phone": "15555",
        "link": "tel:+60 15555",
        "opening_hours": "星期一至日 早上8:00至凌晨12:00",
        "is247": false,
        "description": null
      }
    ]
  },
  "other": {
    "name": "其他地區",
    "hotlines": [
      {
        "title": "find a helpline",
        "type": "website",
        "phone": null,
        "link": "https://findahelpline.com/",
        "opening_hours": null,
        "is247": null,
        "description": "尋找你所在地區的熱線"
      }
    ]
  }
}